0 COSMOS 684
1 07442U 74072H   13281.43533005 -.00000026  00000-0 -61217-4 0  6500
2 07442 074.0350 165.8201 0032438 024.3265 028.9049 12.55651835790259
0 COSMOS 684
1 07442U 74072H   13283.75605006 -.00000001  00000-0  89440-4 0  6519
2 07442 074.0347 162.7048 0032478 020.7857 079.3780 12.55651532790549
0 COSMOS 684
1 07442U 74072H   13285.82059610  .00000024  00000-0  24133-3 0  6525
2 07442 074.0343 159.9333 0032513 017.6496 051.8395 12.55651365790804
0 COSMOS 684
1 07442U 74072H   13287.82427844  .00000015  00000-0  19149-3 0  6537
2 07442 074.0337 157.2436 0032551 014.5969 109.1832 12.55651506791053
0 COSMOS 684
1 07442U 74072H   13290.05170191 -.00000007  00000-0  54551-4 0  6546
2 07442 074.0333 154.2534 0032590 011.2409 097.8777 12.55651837791330
0 COSMOS 684
1 07442U 74072H   13292.05329260 -.00000019  00000-0 -18723-4 0  6557
2 07442 074.0331 151.5662 0032626 008.2135 145.7473 12.55652097791584
0 COSMOS 684
1 07442U 74072H   13294.35391333 -.00000016  00000-0 -22479-5 0  6564
2 07442 074.0331 148.4774 0032663 004.7365 105.3338 12.55652128791879
